DMSP 5D-3 F16 (USA 172) 
1 28054U 03048A   26158.84934668  .00000033  00000+0  40857-4 0  9997
2 28054  98.9892 182.6157 0007289 164.7808   8.1383 14.14482374168169
METEOSAT-9 (MSG-2)      
1 28912U 05049B   26158.78246617  .00000137  00000+0  00000+0 0  9992
2 28912   9.3393  54.2585 0001734 348.5772 180.7301  1.00268552  6905
DMSP 5D-3 F17 (USA 191) 
1 29522U 06050A   26158.76508698  .00000086  00000+0  66887-4 0  9994
2 29522  98.7377 165.5279 0011325  83.5311 276.7152 14.14991893 11091
FENGYUN 3A              
1 32958U 08026A   26158.74349051  .00000092  00000+0  63920-4 0  9992
2 32958  98.6881  99.7535 0009184 148.7211 211.4513 14.19569254934068
GOES 14                 
1 35491U 09033A   26158.63128661 -.00000237  00000+0  00000+0 0  9993
2 35491   1.6645  83.1599 0001995   3.5143 183.9218  1.00114378  6497
DMSP 5D-3 F18 (USA 210) 
1 35951U 09057A   26158.80655035  .00000258  00000+0  15695-3 0  9991
2 35951  98.9033 139.5963 0009879 279.4243  80.5813 14.14891607858262
EWS-G2 (GOES 15)        
1 36411U 10008A   26158.78593285  .00000034  00000+0  00000+0 0  9998
2 36411   1.2510  83.0160 0005472  37.7549 121.9434  1.00275824 59543
COMS 1                  
1 36744U 10032A   26154.99142485 -.00000334  00000+0  00000+0 0  9999
2 36744   4.7750  75.5286 0001016   4.5847 297.3769  1.00270643 50953
FENGYUN 3B              
1 37214U 10059A   26158.92017424  .00000209  00000+0  13156-3 0  9992
2 37214  98.9620 204.8953 0021433 210.8318 322.2013 14.14840184806114
SUOMI NPP               
1 37849U 11061A   26158.82491889  .00000088  00000+0  62760-4 0  9991
2 37849  98.7951  99.7651 0002037  27.1898 332.9384 14.19515552757117
METEOSAT-10 (MSG-3)     
1 38552U 12035B   26158.34558516  .00000009  00000+0  00000+0 0  9990
2 38552   4.6475  61.0621 0001677 336.2701 343.0302  1.00275762 50752
METOP-B                 
1 38771U 12049A   26158.75717984  .00000123  00000+0  76067-4 0  9997
2 38771  98.6507 210.4441 0002783  41.5483 318.5906 14.21430295711927
INSAT-3D                
1 39216U 13038B   26158.79901956 -.00000324  00000+0  00000+0 0  9992
2 39216   1.9008  82.6631 0000843 320.0423 270.6425  1.00274279 46981
FENGYUN 3C              
1 39260U 13052A   26158.85625279  .00000099  00000+0  71378-4 0  9994
2 39260  98.4975 133.1598 0015656  53.1014 307.1593 14.15753046657249
METEOR-M 2              
1 40069U 14037A   26158.85411093  .00000065  00000+0  48958-4 0  9995
2 40069  98.5115 134.9234 0007016  67.0448 293.1470 14.21458252617991
HIMAWARI-8              
1 40267U 14060A   26158.76112443 -.00000261  00000+0  00000+0 0  9998
2 40267   0.0222  56.9547 0000849  42.6707 211.2144  1.00270962 42660
FENGYUN 2G              
1 40367U 14090A   26158.79303955 -.00000288  00000+0  00000+0 0  9994
2 40367   5.6148  72.9276 0003377 153.3297  55.0224  1.00277410 41903
METEOSAT-11 (MSG-4)     
1 40732U 15034A   26158.84649397  .00000079  00000+0  00000+0 0  9995
2 40732   3.1790  71.1621 0001691   5.6372 133.6031  1.00277409  7123
ELEKTRO-L 2             
1 41105U 15074A   26158.05735411 -.00000104  00000+0  00000+0 0  9990
2 41105   6.6683  70.6461 0001291 283.5448 267.4428  1.00272194 38407
SENTINEL-3A             
1 41335U 16011A   26158.81916301  .00000115  00000+0  65544-4 0  9990
2 41335  98.6250 226.3370 0001354 104.3507 255.7824 14.26737473536724
INSAT-3DR               
1 41752U 16054A   26158.78801286 -.00000062  00000+0  00000+0 0  9994
2 41752   0.0811  87.6532 0010383 186.8461 339.3667  1.00270684 35723
HIMAWARI-9              
1 41836U 16064A   26158.76112411 -.00000259  00000+0  00000+0 0  9999
2 41836   0.0316 157.3936 0000860 319.5367 194.0077  1.00273039 35119
GOES 16                 
1 41866U 16071A   26158.68138674 -.00000076  00000+0  00000+0 0  9997
2 41866   0.3154  85.6251 0000497 318.0468 353.0452  1.00270807 35002
FENGYUN 4A              
1 41882U 16077A   26158.86917387 -.00000341  00000+0  00000+0 0  9992
2 41882   2.2984  80.3836 0008215 151.4693 101.0862  1.00274441 34832
CYGFM05                 
1 41884U 16078A   26158.75099932  .00025312  00000+0  34812-3 0  9996
2 41884  34.9577 323.0564 0007051  53.3154 306.8217 15.56250291527286
CYGFM04                 
1 41885U 16078B   26158.75064260  .00031045  00000+0  35651-3 0  9995
2 41885  34.9327 291.2179 0005959 100.7375 259.4021 15.60983602527522
CYGFM02                 
1 41886U 16078C   26158.76915222  .00034711  00000+0  35547-3 0  9997
2 41886  34.9410 285.9023 0006939 102.1456 258.0048 15.63886780527693
CYGFM01                 
1 41887U 16078D   26158.74378854  .00026612  00000+0  35696-3 0  9996
2 41887  34.9407 324.2377 0006949  46.5482 313.5819 15.56912434527231
CYGFM08                 
1 41888U 16078E   26158.71929493  .00029673  00000+0  36036-3 0  9994
2 41888  34.9437 304.2251 0007839  81.2519 278.9093 15.59518568527499
CYGFM07                 
1 41890U 16078G   26158.67904067  .00029729  00000+0  35980-3 0  9991
2 41890  34.9451 292.8440 0006346  98.7772 261.3672 15.59620789527517
CYGFM03                 
1 41891U 16078H   26158.77801366  .00027308  00000+0  33072-3 0  9992
2 41891  34.9404 294.1248 0005908  86.1053 274.0347 15.59618754527501
